[{"OBJECT_NAME":"ONEWEB-0576","OBJECT_ID":"2023-043V","EPOCH":"2026-05-31T04:33:59.063616","MEAN_MOTION":13.16592938,"ECCENTRICITY":0.000224,"INCLINATION":87.9107,"RA_OF_ASC_NODE":232.1493,"ARG_OF_PERICENTER":96.4222,"MEAN_ANOMALY":263.7164,"EPHEMERIS_TYPE":0,"CLASSIFICATION_TYPE":"U","NORAD_CAT_ID":56065,"ELEMENT_SET_NO":999,"REV_AT_EPOCH":15672,"BSTAR":9.5683e-05,"MEAN_MOTION_DOT":4.9e-07,"MEAN_MOTION_DDOT":0.0},{"OBJECT_NAME":"ONEWEB-0577","OBJECT_ID":"2023-043W","EPOCH":"2026-05-31T04:43:06.475008","MEAN_MOTION":13.16592593,"ECCENTRICITY":0.000267,"INCLINATION":87.9106,"RA_OF_ASC_NODE":232.1459,"ARG_OF_PERICENTER":87.4348,"MEAN_ANOMALY":272.7088,"EPHEMERIS_TYPE":0,"CLASSIFICATION_TYPE":"U","NORAD_CAT_ID":56066,"ELEMENT_SET_NO":999,"REV_AT_EPOCH":15675,"BSTAR":0.00010401,"MEAN_MOTION_DOT":5.3e-07,"MEAN_MOTION_DDOT":0.0},{"OBJECT_NAME":"ONEWEB-0578","OBJECT_ID":"2023-043X","EPOCH":"2026-05-30T16:37:08.522400","MEAN_MOTION":13.21825587,"ECCENTRICITY":0.0002295,"INCLINATION":87.926,"RA_OF_ASC_NODE":247.4525,"ARG_OF_PERICENTER":104.5621,"MEAN_ANOMALY":255.5768,"EPHEMERIS_TYPE":0,"CLASSIFICATION_TYPE":"U","NORAD_CAT_ID":56067,"ELEMENT_SET_NO":999,"REV_AT_EPOCH":15592,"BSTAR":0.00015853999999999998,"MEAN_MOTION_DOT":7.8e-07,"MEAN_MOTION_DDOT":0.0},{"OBJECT_NAME":"ONEWEB-0579","OBJECT_ID":"2023-043Y","EPOCH":"2026-05-31T05:08:03.025824","MEAN_MOTION":13.21825202,"ECCENTRICITY":0.0001797,"INCLINATION":87.9263,"RA_OF_ASC_NODE":247.3447,"ARG_OF_PERICENTER":96.5535,"MEAN_ANOMALY":263.5804,"EPHEMERIS_TYPE":0,"CLASSIFICATION_TYPE":"U","NORAD_CAT_ID":56068,"ELEMENT_SET_NO":999,"REV_AT_EPOCH":15600,"BSTAR":0.00013800000000000002,"MEAN_MOTION_DOT":7e-07,"MEAN_MOTION_DDOT":0.0},{"OBJECT_NAME":"ONEWEB-0581","OBJECT_ID":"2023-043Z","EPOCH":"2026-05-31T04:52:13.896768","MEAN_MOTION":13.16596184,"ECCENTRICITY":0.0002464,"INCLINATION":87.9105,"RA_OF_ASC_NODE":232.1562,"ARG_OF_PERICENTER":87.8711,"MEAN_ANOMALY":272.2702,"EPHEMERIS_TYPE":0,"CLASSIFICATION_TYPE":"U","NORAD_CAT_ID":56069,"ELEMENT_SET_NO":999,"REV_AT_EPOCH":15672,"BSTAR":0.00027175,"MEAN_MOTION_DOT":1.17e-06,"MEAN_MOTION_DDOT":0.0},{"OBJECT_NAME":"ONEWEB-0609","OBJECT_ID":"2023-043AA","EPOCH":"2026-05-30T18:20:31.352928","MEAN_MOTION":13.15548229,"ECCENTRICITY":0.0001899,"INCLINATION":87.8994,"RA_OF_ASC_NODE":262.6834,"ARG_OF_PERICENTER":104.0065,"MEAN_ANOMALY":256.1277,"EPHEMERIS_TYPE":0,"CLASSIFICATION_TYPE":"U","NORAD_CAT_ID":56070,"ELEMENT_SET_NO":999,"REV_AT_EPOCH":15414,"BSTAR":0.00030966,"MEAN_MOTION_DOT":1.29e-06,"MEAN_MOTION_DDOT":0.0},{"OBJECT_NAME":"ONEWEB-0613","OBJECT_ID":"2023-043AB","EPOCH":"2026-05-30T20:06:37.651392","MEAN_MOTION":13.15548514,"ECCENTRICITY":0.0001646,"INCLINATION":87.8994,"RA_OF_ASC_NODE":262.6807,"ARG_OF_PERICENTER":100.923,"MEAN_ANOMALY":259.2085,"EPHEMERIS_TYPE":0,"CLASSIFICATION_TYPE":"U","NORAD_CAT_ID":56071,"ELEMENT_SET_NO":999,"REV_AT_EPOCH":15415,"BSTAR":0.00027169,"MEAN_MOTION_DOT":1.15e-06,"MEAN_MOTION_DDOT":0.0},{"OBJECT_NAME":"ONEWEB-0630","OBJECT_ID":"2023-043AC","EPOCH":"2026-05-30T18:10:14.981376","MEAN_MOTION":13.15549825,"ECCENTRICITY":0.0001672,"INCLINATION":87.8995,"RA_OF_ASC_NODE":262.6679,"ARG_OF_PERICENTER":99.822,"MEAN_ANOMALY":260.3099,"EPHEMERIS_TYPE":0,"CLASSIFICATION_TYPE":"U","NORAD_CAT_ID":56072,"ELEMENT_SET_NO":999,"REV_AT_EPOCH":15413,"BSTAR":0.00027073,"MEAN_MOTION_DOT":1.15e-06,"MEAN_MOTION_DDOT":0.0},{"OBJECT_NAME":"ONEWEB-0632","OBJECT_ID":"2023-043AD","EPOCH":"2026-05-30T19:52:56.044416","MEAN_MOTION":13.1554747,"ECCENTRICITY":0.0001995,"INCLINATION":87.8994,"RA_OF_ASC_NODE":262.672,"ARG_OF_PERICENTER":95.8313,"MEAN_ANOMALY":264.3045,"EPHEMERIS_TYPE":0,"CLASSIFICATION_TYPE":"U","NORAD_CAT_ID":56073,"ELEMENT_SET_NO":999,"REV_AT_EPOCH":15414,"BSTAR":0.00035107,"MEAN_MOTION_DOT":1.45e-06,"MEAN_MOTION_DDOT":0.0},{"OBJECT_NAME":"ONEWEB-0633","OBJECT_ID":"2023-043AE","EPOCH":"2026-05-30T19:43:47.263584","MEAN_MOTION":13.15549618,"ECCENTRICITY":0.0001518,"INCLINATION":87.9004,"RA_OF_ASC_NODE":262.6471,"ARG_OF_PERICENTER":105.2114,"MEAN_ANOMALY":254.9184,"EPHEMERIS_TYPE":0,"CLASSIFICATION_TYPE":"U","NORAD_CAT_ID":56074,"ELEMENT_SET_NO":999,"REV_AT_EPOCH":15412,"BSTAR":7.223800000000001e-05,"MEAN_MOTION_DOT":4e-07,"MEAN_MOTION_DDOT":0.0},{"OBJECT_NAME":"ONEWEB-0634","OBJECT_ID":"2023-043AF","EPOCH":"2026-05-30T19:23:16.100736","MEAN_MOTION":13.15547466,"ECCENTRICITY":0.0002079,"INCLINATION":87.8995,"RA_OF_ASC_NODE":262.6918,"ARG_OF_PERICENTER":109.2126,"MEAN_ANOMALY":250.9229,"EPHEMERIS_TYPE":0,"CLASSIFICATION_TYPE":"U","NORAD_CAT_ID":56075,"ELEMENT_SET_NO":999,"REV_AT_EPOCH":15411,"BSTAR":-0.00034803,"MEAN_MOTION_DOT":-1.18e-06,"MEAN_MOTION_DDOT":0.0},{"OBJECT_NAME":"ONEWEB-0635","OBJECT_ID":"2023-043AG","EPOCH":"2026-05-30T19:16:25.876128","MEAN_MOTION":13.15549465,"ECCENTRICITY":0.0002093,"INCLINATION":87.9006,"RA_OF_ASC_NODE":262.6537,"ARG_OF_PERICENTER":94.4017,"MEAN_ANOMALY":265.7353,"EPHEMERIS_TYPE":0,"CLASSIFICATION_TYPE":"U","NORAD_CAT_ID":56076,"ELEMENT_SET_NO":999,"REV_AT_EPOCH":15414,"BSTAR":-0.00037043,"MEAN_MOTION_DOT":-1.27e-06,"MEAN_MOTION_DDOT":0.0},{"OBJECT_NAME":"ONEWEB-0636","OBJECT_ID":"2023-043AH","EPOCH":"2026-05-30T19:05:01.498272","MEAN_MOTION":13.15548227,"ECCENTRICITY":0.0002078,"INCLINATION":87.8999,"RA_OF_ASC_NODE":262.6628,"ARG_OF_PERICENTER":95.6771,"MEAN_ANOMALY":264.4597,"EPHEMERIS_TYPE":0,"CLASSIFICATION_TYPE":"U","NORAD_CAT_ID":56077,"ELEMENT_SET_NO":999,"REV_AT_EPOCH":15412,"BSTAR":-0.00025326,"MEAN_MOTION_DOT":-8.3e-07,"MEAN_MOTION_DDOT":0.0},{"OBJECT_NAME":"ONEWEB-0637","OBJECT_ID":"2023-043AJ","EPOCH":"2026-05-30T17:06:22.560768","MEAN_MOTION":13.15547785,"ECCENTRICITY":0.0002236,"INCLINATION":87.8998,"RA_OF_ASC_NODE":262.6965,"ARG_OF_PERICENTER":102.1201,"MEAN_ANOMALY":258.018,"EPHEMERIS_TYPE":0,"CLASSIFICATION_TYPE":"U","NORAD_CAT_ID":56078,"ELEMENT_SET_NO":999,"REV_AT_EPOCH":15413,"BSTAR":-0.0003019,"MEAN_MOTION_DOT":-1.01e-06,"MEAN_MOTION_DDOT":0.0},{"OBJECT_NAME":"ONEWEB-0647","OBJECT_ID":"2023-043AK","EPOCH":"2026-05-30T20:38:34.685952","MEAN_MOTION":13.15547288,"ECCENTRICITY":0.0001892,"INCLINATION":87.8998,"RA_OF_ASC_NODE":262.6794,"ARG_OF_PERICENTER":95.9379,"MEAN_ANOMALY":264.1967,"EPHEMERIS_TYPE":0,"CLASSIFICATION_TYPE":"U","NORAD_CAT_ID":56079,"ELEMENT_SET_NO":999,"REV_AT_EPOCH":15414,"BSTAR":-0.00041525000000000004,"MEAN_MOTION_DOT":-1.43e-06,"MEAN_MOTION_DDOT":0.0},{"OBJECT_NAME":"ONEWEB-0651","OBJECT_ID":"2023-043AL","EPOCH":"2026-05-31T03:49:49.173024","MEAN_MOTION":13.15548225,"ECCENTRICITY":0.0002158,"INCLINATION":87.8995,"RA_OF_ASC_NODE":262.6135,"ARG_OF_PERICENTER":97.8957,"MEAN_ANOMALY":262.2418,"EPHEMERIS_TYPE":0,"CLASSIFICATION_TYPE":"U","NORAD_CAT_ID":56080,"ELEMENT_SET_NO":999,"REV_AT_EPOCH":15538,"BSTAR":0.00042154000000000003,"MEAN_MOTION_DOT":1.72e-06,"MEAN_MOTION_DDOT":0.0},{"OBJECT_NAME":"ONEWEB-0718","OBJECT_ID":"2023-043AM","EPOCH":"2026-05-30T16:45:50.152032","MEAN_MOTION":13.15550059,"ECCENTRICITY":0.0001989,"INCLINATION":87.8996,"RA_OF_ASC_NODE":262.686,"ARG_OF_PERICENTER":115.6543,"MEAN_ANOMALY":244.4793,"EPHEMERIS_TYPE":0,"CLASSIFICATION_TYPE":"U","NORAD_CAT_ID":56081,"ELEMENT_SET_NO":999,"REV_AT_EPOCH":15413,"BSTAR":0.00011656999999999999,"MEAN_MOTION_DOT":5.7e-07,"MEAN_MOTION_DDOT":0.0},{"OBJECT_NAME":"ONEWEB-0561","OBJECT_ID":"2023-068A","EPOCH":"2026-05-30T20:23:04.143264","MEAN_MOTION":13.20770373,"ECCENTRICITY":0.000196,"INCLINATION":87.9181,"RA_OF_ASC_NODE":277.8992,"ARG_OF_PERICENTER":87.7022,"MEAN_ANOMALY":272.4336,"EPHEMERIS_TYPE":0,"CLASSIFICATION_TYPE":"U","NORAD_CAT_ID":56710,"ELEMENT_SET_NO":999,"REV_AT_EPOCH":14721,"BSTAR":0.00019857,"MEAN_MOTION_DOT":9.4e-07,"MEAN_MOTION_DDOT":0.0},{"OBJECT_NAME":"ONEWEB-0668","OBJECT_ID":"2023-068B","EPOCH":"2026-05-30T06:22:31.268352","MEAN_MOTION":13.16593125,"ECCENTRICITY":0.0002398,"INCLINATION":87.9108,"RA_OF_ASC_NODE":232.3301,"ARG_OF_PERICENTER":109.9688,"MEAN_ANOMALY":250.1701,"EPHEMERIS_TYPE":0,"CLASSIFICATION_TYPE":"U","NORAD_CAT_ID":56711,"ELEMENT_SET_NO":999,"REV_AT_EPOCH":14942,"BSTAR":-0.00011118,"MEAN_MOTION_DOT":-3e-07,"MEAN_MOTION_DDOT":0.0},{"OBJECT_NAME":"ONEWEB-0676","OBJECT_ID":"2023-068C","EPOCH":"2026-05-31T04:27:08.972064","MEAN_MOTION":13.16595816,"ECCENTRICITY":0.0002242,"INCLINATION":87.9107,"RA_OF_ASC_NODE":232.1535,"ARG_OF_PERICENTER":92.1479,"MEAN_ANOMALY":267.9909,"EPHEMERIS_TYPE":0,"CLASSIFICATION_TYPE":"U","NORAD_CAT_ID":56712,"ELEMENT_SET_NO":999,"REV_AT_EPOCH":14946,"BSTAR":0.00010109999999999999,"MEAN_MOTION_DOT":5.1e-07,"MEAN_MOTION_DDOT":0.0},{"OBJECT_NAME":"ONEWEB-0677","OBJECT_ID":"2023-068D","EPOCH":"2026-05-30T21:55:11.440704","MEAN_MOTION":13.20772286,"ECCENTRICITY":0.0002343,"INCLINATION":87.9179,"RA_OF_ASC_NODE":277.878,"ARG_OF_PERICENTER":98.9237,"MEAN_ANOMALY":261.2162,"EPHEMERIS_TYPE":0,"CLASSIFICATION_TYPE":"U","NORAD_CAT_ID":56713,"ELEMENT_SET_NO":999,"REV_AT_EPOCH":14752,"BSTAR":-2.0502e-05,"MEAN_MOTION_DOT":5e-08,"MEAN_MOTION_DDOT":0.0},{"OBJECT_NAME":"ONEWEB-0678","OBJECT_ID":"2023-068E","EPOCH":"2026-05-30T19:39:14.135904","MEAN_MOTION":13.15547404,"ECCENTRICITY":0.0001697,"INCLINATION":87.9003,"RA_OF_ASC_NODE":262.6522,"ARG_OF_PERICENTER":94.1393,"MEAN_ANOMALY":265.9931,"EPHEMERIS_TYPE":0,"CLASSIFICATION_TYPE":"U","NORAD_CAT_ID":56714,"ELEMENT_SET_NO":999,"REV_AT_EPOCH":14700,"BSTAR":-4.0667e-05,"MEAN_MOTION_DOT":-2e-08,"MEAN_MOTION_DDOT":0.0},{"OBJECT_NAME":"ONEWEB-0679","OBJECT_ID":"2023-068F","EPOCH":"2026-05-31T05:17:18.636576","MEAN_MOTION":13.16593934,"ECCENTRICITY":0.0002604,"INCLINATION":87.9111,"RA_OF_ASC_NODE":232.1382,"ARG_OF_PERICENTER":101.1737,"MEAN_ANOMALY":258.9686,"EPHEMERIS_TYPE":0,"CLASSIFICATION_TYPE":"U","NORAD_CAT_ID":56715,"ELEMENT_SET_NO":999,"REV_AT_EPOCH":14949,"BSTAR":0.00032174000000000005,"MEAN_MOTION_DOT":1.36e-06,"MEAN_MOTION_DDOT":0.0}]